{"type":"FeatureCollection","features":[{"type":"Feature","id":"node/13680861319","properties":{"@id":"13680861319","@type":"node","man_made":"outfall","outlet":"yes","ref:US-VA:rva-dpu":"CSO006","substance":"sewage"},"geometry":{"type":"Point","coordinates":[-77.4317546,37.5310131]}},{"type":"Feature","id":"node/13680861320","properties":{"@id":"13680861320","@type":"node","man_made":"outfall","outlet":"yes","ref:US-VA:rva-dpu":"CSO034","substance":"sewage"},"geometry":{"type":"Point","coordinates":[-77.427682,37.5309111]}},{"type":"Feature","id":"node/13680861321","properties":{"@id":"13680861321","@type":"node","man_made":"outfall","outlet":"yes","ref:US-VA:rva-dpu":"CSO035","substance":"sewage"},"geometry":{"type":"Point","coordinates":[-77.4225407,37.527578]}},{"type":"Feature","id":"node/13680861322","properties":{"@id":"13680861322","@type":"node","man_made":"outfall","outlet":"yes","ref:US-VA:rva-dpu":"CSO005","substance":"sewage"},"geometry":{"type":"Point","coordinates":[-77.4205448,37.5251987]}},{"type":"Feature","id":"node/13680861323","properties":{"@id":"13680861323","@type":"node","man_made":"outfall","outlet":"yes","ref:US-VA:rva-dpu":"CSO021","substance":"sewage"},"geometry":{"type":"Point","coordinates":[-77.4220213,37.5226765]}},{"type":"Feature","id":"node/13680861324","properties":{"@id":"13680861324","@type":"node","man_made":"outfall","outlet":"yes","ref:US-VA:rva-dpu":"CSO014","substance":"sewage"},"geometry":{"type":"Point","coordinates":[-77.4328747,37.5254106]}},{"type":"Feature","id":"node/13680861325","properties":{"@id":"13680861325","@type":"node","man_made":"outfall","outlet":"yes","ref:US-VA:rva-dpu":"CSO007","substance":"sewage"},"geometry":{"type":"Point","coordinates":[-77.4362862,37.533807]}},{"type":"Feature","id":"node/13680861326","properties":{"@id":"13680861326","@type":"node","man_made":"outfall","outlet":"yes","ref:US-VA:rva-dpu":"CSO009","substance":"sewage"},"geometry":{"type":"Point","coordinates":[-77.4426028,37.535079]}},{"type":"Feature","id":"node/13680861327","properties":{"@id":"13680861327","@type":"node","man_made":"outfall","outlet":"yes","ref:US-VA:rva-dpu":"CSO010","substance":"sewage"},"geometry":{"type":"Point","coordinates":[-77.4447248,37.5348924]}},{"type":"Feature","id":"node/13680861328","properties":{"@id":"13680861328","@type":"node","man_made":"outfall","outlet":"yes","ref:US-VA:rva-dpu":"CSO011","substance":"sewage"},"geometry":{"type":"Point","coordinates":[-77.4532277,37.5335993]}},{"type":"Feature","id":"node/13680861329","properties":{"@id":"13680861329","@type":"node","man_made":"outfall","outlet":"yes","ref:US-VA:rva-dpu":"CSO019","substance":"sewage"},"geometry":{"type":"Point","coordinates":[-77.4751443,37.5307214]}},{"type":"Feature","id":"node/13680861330","properties":{"@id":"13680861330","@type":"node","layer":"0","man_made":"outfall","outlet":"yes","ref:US-VA:rva-dpu":"CSO020","substance":"sewage"},"geometry":{"type":"Point","coordinates":[-77.4948796,37.5401229]}},{"type":"Feature","id":"node/13680861331","properties":{"@id":"13680861331","@type":"node","man_made":"outfall","outlet":"yes","ref:US-VA:rva-dpu":"CSO033","substance":"sewage"},"geometry":{"type":"Point","coordinates":[-77.4766224,37.5382296]}},{"type":"Feature","id":"node/13680861332","properties":{"@id":"13680861332","@type":"node","man_made":"outfall","outlet":"yes","ref:US-VA:rva-dpu":"CSO018","substance":"sewage"},"geometry":{"type":"Point","coordinates":[-77.4737723,37.5257051]}},{"type":"Feature","id":"node/13680861333","properties":{"@id":"13680861333","@type":"node","man_made":"outfall","outlet":"yes","ref:US-VA:rva-dpu":"CSO017","substance":"sewage"},"geometry":{"type":"Point","coordinates":[-77.4690215,37.524438]}},{"type":"Feature","id":"node/13680861334","properties":{"@id":"13680861334","@type":"node","man_made":"outfall","outlet":"yes","ref:US-VA:rva-dpu":"CSO016","substance":"sewage"},"geometry":{"type":"Point","coordinates":[-77.4615769,37.5240963]}},{"type":"Feature","id":"node/13680861335","properties":{"@id":"13680861335","@type":"node","man_made":"outfall","outlet":"yes","ref:US-VA:rva-dpu":"CSO015","substance":"sewage"},"geometry":{"type":"Point","coordinates":[-77.4573903,37.5247874]}},{"type":"Feature","id":"node/13680861336","properties":{"@id":"13680861336","@type":"node","man_made":"outfall","outlet":"yes","ref:US-VA:rva-dpu":"CSO012","substance":"sewage"},"geometry":{"type":"Point","coordinates":[-77.3975557,37.5069263]}},{"type":"Feature","id":"node/13680861337","properties":{"@id":"13680861337","@type":"node","man_made":"outfall","outlet":"yes","ref:US-VA:rva-dpu":"CSO031","substance":"sewage"},"geometry":{"type":"Point","coordinates":[-77.4001225,37.5386643]}},{"type":"Feature","id":"node/13680861338","properties":{"@id":"13680861338","@type":"node","man_made":"outfall","outlet":"yes","ref:US-VA:rva-dpu":"CSO025","substance":"sewage"},"geometry":{"type":"Point","coordinates":[-77.3937855,37.5284462]}},{"type":"Feature","id":"node/13680861339","properties":{"@id":"13680861339","@type":"node","man_made":"outfall","outlet":"yes","ref:US-VA:rva-dpu":"CSO026","substance":"sewage"},"geometry":{"type":"Point","coordinates":[-77.3995536,37.5246269]}},{"type":"Feature","id":"node/13680861340","properties":{"@id":"13680861340","@type":"node","man_made":"outfall","outlet":"yes","ref:US-VA:rva-dpu":"CSO024","substance":"sewage"},"geometry":{"type":"Point","coordinates":[-77.4041542,37.5231304]}},{"type":"Feature","id":"node/13680861341","properties":{"@id":"13680861341","@type":"node","man_made":"outfall","outlet":"yes","ref:US-VA:rva-dpu":"CSO039","substance":"sewage"},"geometry":{"type":"Point","coordinates":[-77.4048952,37.5233287]}},{"type":"Feature","id":"node/13680861342","properties":{"@id":"13680861342","@type":"node","man_made":"outfall","outlet":"yes","ref:US-VA:rva-dpu":"CSO028","substance":"sewage"},"geometry":{"type":"Point","coordinates":[-77.412347,37.5223688]}},{"type":"Feature","id":"node/13680861343","properties":{"@id":"13680861343","@type":"node","man_made":"outfall","outlet":"yes","ref:US-VA:rva-dpu":"CSO004","substance":"sewage"},"geometry":{"type":"Point","coordinates":[-77.4160959,37.522678]}},{"type":"Feature","id":"node/13680861344","properties":{"@id":"13680861344","@type":"node","man_made":"outfall","name":"Diffuser","outlet":"yes","ref:US-VA:rva-dpu":"CSO040","substance":"sewage"},"geometry":{"type":"Point","coordinates":[-77.439892,37.5281358]}}]}