{
"type": "FeatureCollection",
"name": "cso_overflow",
"crs": { "type": "name", "properties": { "name": "urn:ogc:def:crs:OGC:1.3:CRS84" } },
"features": [
{ "type": "Feature", "properties": { "name": "CSO004", "site_type": "monitored", "cso_now": false, "cso_active": false, "cso_last": "2026-06-28T17:50:00", "cso_start": null, "created_on": "2026-07-04T14:44:15", "query_time": "2026-07-04T14:45:14", "days_since_cso": 6.0, "cso_recent": false, "id": "node/13680861343", "@id": "13680861343", "@type": "node", "man_made": "outfall", "outlet": "yes", "substance": "sewage" }, "geometry": { "type": "Point", "coordinates": [ -77.4160959, 37.522678 ] } },
{ "type": "Feature", "properties": { "name": "CSO005", "site_type": "monitored", "cso_now": false, "cso_active": false, "cso_last": "2026-06-28T19:10:00", "cso_start": null, "created_on": "2026-07-04T14:44:18", "query_time": "2026-07-04T14:45:14", "days_since_cso": 6.0, "cso_recent": false, "id": "node/13680861322", "@id": "13680861322", "@type": "node", "man_made": "outfall", "outlet": "yes", "substance": "sewage" }, "geometry": { "type": "Point", "coordinates": [ -77.4205448, 37.5251987 ] } },
{ "type": "Feature", "properties": { "name": "CSO006", "site_type": "monitored", "cso_now": false, "cso_active": false, "cso_last": "2026-06-29T11:25:00", "cso_start": null, "created_on": "2026-07-04T14:29:46", "query_time": "2026-07-04T14:45:14", "days_since_cso": 5.0, "cso_recent": false, "id": "node/13680861319", "@id": "13680861319", "@type": "node", "man_made": "outfall", "outlet": "yes", "substance": "sewage" }, "geometry": { "type": "Point", "coordinates": [ -77.4317546, 37.5310131 ] } },
{ "type": "Feature", "properties": { "name": "CSO007", "site_type": "monitored", "cso_now": false, "cso_active": false, "cso_last": "2026-06-28T17:35:00", "cso_start": null, "created_on": "2026-07-04T14:44:07", "query_time": "2026-07-04T14:45:14", "days_since_cso": 6.0, "cso_recent": false, "id": "node/13680861325", "@id": "13680861325", "@type": "node", "man_made": "outfall", "outlet": "yes", "substance": "sewage" }, "geometry": { "type": "Point", "coordinates": [ -77.4362862, 37.533807 ] } },
{ "type": "Feature", "properties": { "name": "CSO009", "site_type": "monitored", "cso_now": false, "cso_active": false, "cso_last": "2026-06-28T17:20:00", "cso_start": null, "created_on": "2026-07-04T14:14:26", "query_time": "2026-07-04T14:45:14", "days_since_cso": 6.0, "cso_recent": false, "id": "node/13680861326", "@id": "13680861326", "@type": "node", "man_made": "outfall", "outlet": "yes", "substance": "sewage" }, "geometry": { "type": "Point", "coordinates": [ -77.4426028, 37.535079 ] } },
{ "type": "Feature", "properties": { "name": "CSO010", "site_type": "monitored", "cso_now": false, "cso_active": false, "cso_last": "2025-07-24T09:05:00", "cso_start": null, "created_on": "2026-07-04T14:44:26", "query_time": "2026-07-04T14:45:14", "days_since_cso": 345.0, "cso_recent": false, "id": "node/13680861327", "@id": "13680861327", "@type": "node", "man_made": "outfall", "outlet": "yes", "substance": "sewage" }, "geometry": { "type": "Point", "coordinates": [ -77.4447248, 37.5348924 ] } },
{ "type": "Feature", "properties": { "name": "CSO011", "site_type": "monitored", "cso_now": false, "cso_active": false, "cso_last": "2026-06-28T17:40:00", "cso_start": null, "created_on": "2026-07-04T14:44:29", "query_time": "2026-07-04T14:45:14", "days_since_cso": 6.0, "cso_recent": false, "id": "node/13680861328", "@id": "13680861328", "@type": "node", "man_made": "outfall", "outlet": "yes", "substance": "sewage" }, "geometry": { "type": "Point", "coordinates": [ -77.4532277, 37.5335993 ] } },
{ "type": "Feature", "properties": { "name": "CSO012", "site_type": "monitored", "cso_now": false, "cso_active": false, "cso_last": "2026-06-14T18:55:00", "cso_start": null, "created_on": "2026-07-04T14:44:33", "query_time": "2026-07-04T14:45:14", "days_since_cso": 20.0, "cso_recent": false, "id": "node/13680861336", "@id": "13680861336", "@type": "node", "man_made": "outfall", "outlet": "yes", "substance": "sewage" }, "geometry": { "type": "Point", "coordinates": [ -77.3975557, 37.5069263 ] } },
{ "type": "Feature", "properties": { "name": "CSO014", "site_type": "monitored", "cso_now": false, "cso_active": false, "cso_last": "2026-06-28T17:05:00", "cso_start": null, "created_on": "2026-07-04T14:44:37", "query_time": "2026-07-04T14:45:14", "days_since_cso": 6.0, "cso_recent": false, "id": "node/13680861324", "@id": "13680861324", "@type": "node", "man_made": "outfall", "outlet": "yes", "substance": "sewage" }, "geometry": { "type": "Point", "coordinates": [ -77.4328747, 37.5254106 ] } },
{ "type": "Feature", "properties": { "name": "CSO015", "site_type": "monitored", "cso_now": false, "cso_active": false, "cso_last": "2026-06-28T18:05:00", "cso_start": null, "created_on": "2026-07-04T14:44:40", "query_time": "2026-07-04T14:45:14", "days_since_cso": 6.0, "cso_recent": false, "id": "node/13680861335", "@id": "13680861335", "@type": "node", "man_made": "outfall", "outlet": "yes", "substance": "sewage" }, "geometry": { "type": "Point", "coordinates": [ -77.4573903, 37.5247874 ] } },
{ "type": "Feature", "properties": { "name": "CSO016", "site_type": "monitored", "cso_now": false, "cso_active": false, "cso_last": "2025-06-09T16:35:00", "cso_start": null, "created_on": "2026-07-04T14:44:44", "query_time": "2026-07-04T14:45:14", "days_since_cso": 390.0, "cso_recent": false, "id": "node/13680861334", "@id": "13680861334", "@type": "node", "man_made": "outfall", "outlet": "yes", "substance": "sewage" }, "geometry": { "type": "Point", "coordinates": [ -77.4615769, 37.5240963 ] } },
{ "type": "Feature", "properties": { "name": "CSO017", "site_type": "monitored", "cso_now": false, "cso_active": false, "cso_last": "2025-07-12T13:40:00", "cso_start": null, "created_on": "2026-07-04T14:44:48", "query_time": "2026-07-04T14:45:14", "days_since_cso": 357.0, "cso_recent": false, "id": "node/13680861333", "@id": "13680861333", "@type": "node", "man_made": "outfall", "outlet": "yes", "substance": "sewage" }, "geometry": { "type": "Point", "coordinates": [ -77.4690215, 37.524438 ] } },
{ "type": "Feature", "properties": { "name": "CSO018", "site_type": "monitored", "cso_now": false, "cso_active": false, "cso_last": null, "cso_start": null, "created_on": "2026-07-04T11:59:43", "query_time": "2026-07-04T14:45:14", "days_since_cso": null, "cso_recent": null, "id": "node/13680861332", "@id": "13680861332", "@type": "node", "man_made": "outfall", "outlet": "yes", "substance": "sewage" }, "geometry": { "type": "Point", "coordinates": [ -77.4737723, 37.5257051 ] } },
{ "type": "Feature", "properties": { "name": "CSO019", "site_type": "monitored", "cso_now": false, "cso_active": false, "cso_last": null, "cso_start": null, "created_on": "2026-07-04T14:44:55", "query_time": "2026-07-04T14:45:14", "days_since_cso": null, "cso_recent": null, "id": "node/13680861329", "@id": "13680861329", "@type": "node", "man_made": "outfall", "outlet": "yes", "substance": "sewage" }, "geometry": { "type": "Point", "coordinates": [ -77.4751443, 37.5307214 ] } },
{ "type": "Feature", "properties": { "name": "CSO020", "site_type": "monitored", "cso_now": false, "cso_active": false, "cso_last": "2026-06-28T18:00:00", "cso_start": null, "created_on": "2026-07-04T14:44:59", "query_time": "2026-07-04T14:45:14", "days_since_cso": 6.0, "cso_recent": false, "id": "node/13680861330", "@id": "13680861330", "@type": "node", "man_made": "outfall", "outlet": "yes", "substance": "sewage" }, "geometry": { "type": "Point", "coordinates": [ -77.4948796, 37.5401229 ] } },
{ "type": "Feature", "properties": { "name": "CSO021", "site_type": "monitored", "cso_now": false, "cso_active": false, "cso_last": "2026-06-28T19:25:00", "cso_start": null, "created_on": "2026-07-04T14:45:04", "query_time": "2026-07-04T14:45:14", "days_since_cso": 6.0, "cso_recent": false, "id": "node/13680861323", "@id": "13680861323", "@type": "node", "man_made": "outfall", "outlet": "yes", "substance": "sewage" }, "geometry": { "type": "Point", "coordinates": [ -77.4220213, 37.5226765 ] } },
{ "type": "Feature", "properties": { "name": "CSO024", "site_type": "monitored", "cso_now": false, "cso_active": false, "cso_last": "2026-06-28T18:25:00", "cso_start": null, "created_on": "2026-07-04T14:45:08", "query_time": "2026-07-04T14:45:14", "days_since_cso": 6.0, "cso_recent": false, "id": "node/13680861340", "@id": "13680861340", "@type": "node", "man_made": "outfall", "outlet": "yes", "substance": "sewage" }, "geometry": { "type": "Point", "coordinates": [ -77.4041542, 37.5231304 ] } },
{ "type": "Feature", "properties": { "name": "CSO025", "site_type": "monitored", "cso_now": false, "cso_active": false, "cso_last": "2025-07-15T16:05:00", "cso_start": null, "created_on": "2026-07-04T14:45:11", "query_time": "2026-07-04T14:45:14", "days_since_cso": 354.0, "cso_recent": false, "id": "node/13680861338", "@id": "13680861338", "@type": "node", "man_made": "outfall", "outlet": "yes", "substance": "sewage" }, "geometry": { "type": "Point", "coordinates": [ -77.3937855, 37.5284462 ] } },
{ "type": "Feature", "properties": { "name": "CSO026", "site_type": "monitored", "cso_now": false, "cso_active": false, "cso_last": "2026-01-10T12:20:00", "cso_start": null, "created_on": "2026-07-04T14:29:31", "query_time": "2026-07-04T14:45:14", "days_since_cso": 175.0, "cso_recent": false, "id": "node/13680861339", "@id": "13680861339", "@type": "node", "man_made": "outfall", "outlet": "yes", "substance": "sewage" }, "geometry": { "type": "Point", "coordinates": [ -77.3995536, 37.5246269 ] } },
{ "type": "Feature", "properties": { "name": "CSO031", "site_type": "monitored", "cso_now": false, "cso_active": false, "cso_last": "2026-06-28T18:00:00", "cso_start": null, "created_on": "2026-07-04T12:15:20", "query_time": "2026-07-04T14:45:14", "days_since_cso": 6.0, "cso_recent": false, "id": "node/13680861337", "@id": "13680861337", "@type": "node", "man_made": "outfall", "outlet": "yes", "substance": "sewage" }, "geometry": { "type": "Point", "coordinates": [ -77.4001225, 37.5386643 ] } },
{ "type": "Feature", "properties": { "name": "CSO033", "site_type": "monitored", "cso_now": false, "cso_active": false, "cso_last": null, "cso_start": null, "created_on": "2026-07-04T12:28:51", "query_time": "2026-07-04T14:45:14", "days_since_cso": null, "cso_recent": null, "id": "node/13680861331", "@id": "13680861331", "@type": "node", "man_made": "outfall", "outlet": "yes", "substance": "sewage" }, "geometry": { "type": "Point", "coordinates": [ -77.4766224, 37.5382296 ] } },
{ "type": "Feature", "properties": { "name": "CSO034", "site_type": "monitored", "cso_now": false, "cso_active": false, "cso_last": "2026-06-29T02:55:00", "cso_start": null, "created_on": "2026-07-04T14:43:59", "query_time": "2026-07-04T14:45:14", "days_since_cso": 5.0, "cso_recent": false, "id": "node/13680861320", "@id": "13680861320", "@type": "node", "man_made": "outfall", "outlet": "yes", "substance": "sewage" }, "geometry": { "type": "Point", "coordinates": [ -77.427682, 37.5309111 ] } },
{ "type": "Feature", "properties": { "name": "CSO035", "site_type": "monitored", "cso_now": false, "cso_active": false, "cso_last": "2026-06-29T04:30:00", "cso_start": null, "created_on": "2026-07-04T14:44:03", "query_time": "2026-07-04T14:45:14", "days_since_cso": 5.0, "cso_recent": false, "id": "node/13680861321", "@id": "13680861321", "@type": "node", "man_made": "outfall", "outlet": "yes", "substance": "sewage" }, "geometry": { "type": "Point", "coordinates": [ -77.4225407, 37.527578 ] } },
{ "type": "Feature", "properties": { "name": "CSO039", "site_type": "monitored", "cso_now": false, "cso_active": false, "cso_last": "2026-06-28T18:15:00", "cso_start": null, "created_on": "2026-07-04T14:29:38", "query_time": "2026-07-04T14:45:14", "days_since_cso": 6.0, "cso_recent": false, "id": "node/13680861341", "@id": "13680861341", "@type": "node", "man_made": "outfall", "outlet": "yes", "substance": "sewage" }, "geometry": { "type": "Point", "coordinates": [ -77.4048952, 37.5233287 ] } },
{ "type": "Feature", "properties": { "name": "CSO040", "site_type": "monitored", "cso_now": false, "cso_active": false, "cso_last": "2026-06-29T03:40:00", "cso_start": null, "created_on": "2026-07-04T14:29:42", "query_time": "2026-07-04T14:45:14", "days_since_cso": 5.0, "cso_recent": false, "id": "node/13680861344", "@id": "13680861344", "@type": "node", "man_made": "outfall", "outlet": "yes", "substance": "sewage" }, "geometry": { "type": "Point", "coordinates": [ -77.439892, 37.5281358 ] } }
]
}
