{"type":"FeatureCollection","features":[
{"type": "Feature", "geometry": {"type": "Point", "coordinates": [-77.421736, 37.5254183]}, "properties": {"OBJECTID": 3164, "GlobalID": "e1967d49-6442-4fb2-8e80-813b3dc9e302", "StationNumber": null, "StationName": null, "Locality": null, "Latitude": 37.52541833, "Longitude": -77.42173598, "Organization": null, "BacteriaType": null, "Partner": null, "CollectionDate": null, "CollectionTime": null, "AirTemperature": 16.7, "WaterTemperature": 21, "Conductivity": 260, "Turbidity": 4.28, "Ecoli": 111.8, "Enterococci": null, "name": "J41", "SiteConditions": "Slightly chilly and breezy. No wildlife activity. Few people walking around on island. Brief heavy rain the night before.", "date_Time": null, "creator": "deviceid not found", "creationdate": 1778770200000, "EcoliAverage": null, "EnterococciAverage": null, "Salinity": null}},
{"type": "Feature", "geometry": {"type": "Point", "coordinates": [-77.445372, 37.534353]}, "properties": {"OBJECTID": 3165, "GlobalID": "3b141efe-ca58-4bba-89ac-e2854a05a1f1", "StationNumber": null, "StationName": null, "Locality": null, "Latitude": 37.534353, "Longitude": -77.445372, "Organization": null, "BacteriaType": null, "Partner": null, "CollectionDate": null, "CollectionTime": null, "AirTemperature": 16.2, "WaterTemperature": 19.8, "Conductivity": 272, "Turbidity": 3.5, "Ecoli": 99, "Enterococci": null, "name": "J20", "SiteConditions": "Sunny, light breeze. Rain last night. Some ducklings observed.", "date_Time": null, "creator": "deviceid not found", "creationdate": 1778763720000, "EcoliAverage": null, "EnterococciAverage": null, "Salinity": null}},
{"type": "Feature", "geometry": {"type": "Point", "coordinates": [-77.431925, 37.530947]}, "properties": {"OBJECTID": 3166, "GlobalID": "d18e3cef-46a3-4e08-8ae7-f2ebb6370003", "StationNumber": null, "StationName": null, "Locality": null, "Latitude": 37.530947, "Longitude": -77.431925, "Organization": null, "BacteriaType": null, "Partner": null, "CollectionDate": null, "CollectionTime": null, "AirTemperature": 16.3, "WaterTemperature": 19.7, "Conductivity": 276, "Turbidity": 2.6, "Ecoli": 40.5, "Enterococci": null, "name": "J10", "SiteConditions": "Sunny, light breeze. Rain overnight. Rapids moving and slight \"off\" smell.", "date_Time": null, "creator": "deviceid not found", "creationdate": 1778764800000, "EcoliAverage": null, "EnterococciAverage": null, "Salinity": null}},
{"type": "Feature", "geometry": {"type": "Point", "coordinates": [-77.416635, 37.518597]}, "properties": {"OBJECTID": 3167, "GlobalID": "d43fa6ff-31d7-4ce8-816b-e4303abc57a5", "StationNumber": null, "StationName": null, "Locality": null, "Latitude": 37.518597, "Longitude": -77.416635, "Organization": null, "BacteriaType": null, "Partner": null, "CollectionDate": null, "CollectionTime": null, "AirTemperature": 15.9, "WaterTemperature": 19.9, "Conductivity": 262, "Turbidity": 2.1, "Ecoli": 109, "Enterococci": null, "name": "J08", "SiteConditions": "Sunny and breezy, rain overnight", "date_Time": null, "creator": "deviceid not found", "creationdate": 1778765700000, "EcoliAverage": null, "EnterococciAverage": null, "Salinity": null}},
{"type": "Feature", "geometry": {"type": "Point", "coordinates": [-77.469575, 37.524391]}, "properties": {"OBJECTID": 3168, "GlobalID": "01cbc147-f703-43e1-8826-5266de229d8a", "StationNumber": null, "StationName": null, "Locality": null, "Latitude": 37.524391, "Longitude": -77.469575, "Organization": null, "BacteriaType": null, "Partner": null, "CollectionDate": null, "CollectionTime": null, "AirTemperature": 17.5, "WaterTemperature": 20, "Conductivity": 242, "Turbidity": 2.23, "Ecoli": 84.5, "Enterococci": null, "name": "J21", "SiteConditions": "Rain overnight but water surprisingly clear. Small fish in the shallows.", "date_Time": null, "creator": "deviceid not found", "creationdate": 1778770140000, "EcoliAverage": null, "EnterococciAverage": null, "Salinity": null}},
{"type": "Feature", "geometry": {"type": "Point", "coordinates": [-77.475694, 37.52677]}, "properties": {"OBJECTID": 3169, "GlobalID": "7bccf668-8a91-4a73-81b6-d561f6c9c248", "StationNumber": null, "StationName": null, "Locality": null, "Latitude": 37.52677, "Longitude": -77.475694, "Organization": null, "BacteriaType": null, "Partner": null, "CollectionDate": null, "CollectionTime": null, "AirTemperature": 15.5, "WaterTemperature": 19.9, "Conductivity": 242, "Turbidity": 2, "Ecoli": 31.1, "Enterococci": null, "name": "J22", "SiteConditions": "Windy. Water less clear than Reedy Creek. Very muddy but no signs of erosion.", "date_Time": null, "creator": "deviceid not found", "creationdate": 1778771700000, "EcoliAverage": null, "EnterococciAverage": null, "Salinity": null}},
{"type": "Feature", "geometry": {"type": "Point", "coordinates": [-77.545782, 37.56054]}, "properties": {"OBJECTID": 3170, "GlobalID": "c7c878f6-2eea-4c34-8642-0845052836ec", "StationNumber": null, "StationName": null, "Locality": null, "Latitude": 37.56054, "Longitude": -77.545782, "Organization": null, "BacteriaType": null, "Partner": null, "CollectionDate": null, "CollectionTime": null, "AirTemperature": 16.8, "WaterTemperature": 20.6, "Conductivity": 230, "Turbidity": 5.97, "Ecoli": 12.2, "Enterococci": null, "name": "J24", "SiteConditions": "Sunny, breezy, bit chilly. Some rain last night.", "date_Time": null, "creator": "deviceid not found", "creationdate": 1778772000000, "EcoliAverage": null, "EnterococciAverage": null, "Salinity": null}},
{"type": "Feature", "geometry": {"type": "Point", "coordinates": [-77.520421, 37.551591]}, "properties": {"OBJECTID": 3171, "GlobalID": "619166ea-292d-4ee1-81ee-2f166c5af738", "StationNumber": null, "StationName": null, "Locality": null, "Latitude": 37.551591, "Longitude": -77.520421, "Organization": null, "BacteriaType": null, "Partner": null, "CollectionDate": null, "CollectionTime": null, "AirTemperature": 15.7, "WaterTemperature": 20.9, "Conductivity": 240, "Turbidity": 2.18, "Ecoli": 17.1, "Enterococci": null, "name": "J23", "SiteConditions": "Sunny, breezy, chilly, rain last night", "date_Time": null, "creator": "deviceid not found", "creationdate": 1778774280000, "EcoliAverage": null, "EnterococciAverage": null, "Salinity": null}},
{"type": "Feature", "geometry": {"type": "Point", "coordinates": [-77.416635, 37.518597]}, "properties": {"OBJECTID": 3206, "GlobalID": "13358f39-a30d-49ea-8163-c587addd2dc9", "StationNumber": null, "StationName": null, "Locality": null, "Latitude": 37.518597, "Longitude": -77.416635, "Organization": null, "BacteriaType": null, "Partner": null, "CollectionDate": null, "CollectionTime": null, "AirTemperature": 30.6, "WaterTemperature": 28.2, "Conductivity": 277, "Turbidity": 1.2, "Ecoli": 13.9, "Enterococci": null, "name": "J08", "SiteConditions": "clear weather, calm water, no one in the water, no debris, fish swimming, heron flying around", "date_Time": null, "creator": "deviceid not found", "creationdate": 1779372060000, "EcoliAverage": null, "EnterococciAverage": null, "Salinity": null}},
{"type": "Feature", "geometry": {"type": "Point", "coordinates": [-77.431925, 37.530947]}, "properties": {"OBJECTID": 3208, "GlobalID": "9c57c58f-971d-40fe-866d-e69e4bb26d49", "StationNumber": null, "StationName": null, "Locality": null, "Latitude": 37.530947, "Longitude": -77.431925, "Organization": null, "BacteriaType": null, "Partner": null, "CollectionDate": null, "CollectionTime": null, "AirTemperature": 27.1, "WaterTemperature": 26.9, "Conductivity": 268, "Turbidity": 1.83, "Ecoli": 24.5, "Enterococci": null, "name": "J10", "SiteConditions": "clear weather, calm water, no one in the water, no debris in the water. Canadian geese and ducks in water (not close to shoreline though), evidence of campfires via charcoal and ash on the walkway", "date_Time": null, "creator": "deviceid not found", "creationdate": 1779374820000, "EcoliAverage": null, "EnterococciAverage": null, "Salinity": null}},
{"type": "Feature", "geometry": {"type": "Point", "coordinates": [-77.445372, 37.534353]}, "properties": {"OBJECTID": 3209, "GlobalID": "4c6e9e8a-b13e-4043-8ada-83eb71371771", "StationNumber": null, "StationName": null, "Locality": null, "Latitude": 37.534353, "Longitude": -77.445372, "Organization": null, "BacteriaType": null, "Partner": null, "CollectionDate": null, "CollectionTime": null, "AirTemperature": 26.9, "WaterTemperature": 27.3, "Conductivity": 265, "Turbidity": 1.95, "Ecoli": 42.2, "Enterococci": null, "name": "J20", "SiteConditions": "clear water besides Canadian geese scat, no people in water, small fish swimming around near shoreline", "date_Time": null, "creator": "deviceid not found", "creationdate": 1779377460000, "EcoliAverage": null, "EnterococciAverage": null, "Salinity": null}},
{"type": "Feature", "geometry": {"type": "Point", "coordinates": [-77.469575, 37.524391]}, "properties": {"OBJECTID": 3210, "GlobalID": "04f6285b-df0d-4009-82e5-15b36e11105b", "StationNumber": null, "StationName": null, "Locality": null, "Latitude": 37.524391, "Longitude": -77.469575, "Organization": null, "BacteriaType": null, "Partner": null, "CollectionDate": null, "CollectionTime": null, "AirTemperature": 26.7, "WaterTemperature": 27.3, "Conductivity": 301, "Turbidity": 1.95, "Ecoli": 7.3, "Enterococci": null, "name": "J21", "SiteConditions": "Still water, low water levels", "date_Time": null, "creator": "deviceid not found", "creationdate": 1779371880000, "EcoliAverage": null, "EnterococciAverage": null, "Salinity": null}},
{"type": "Feature", "geometry": {"type": "Point", "coordinates": [-77.475694, 37.52677]}, "properties": {"OBJECTID": 3212, "GlobalID": "5b5c74d6-fcab-4c49-8e10-62774d7e5017", "StationNumber": null, "StationName": null, "Locality": null, "Latitude": 37.52677, "Longitude": -77.475694, "Organization": null, "BacteriaType": null, "Partner": null, "CollectionDate": null, "CollectionTime": null, "AirTemperature": 26.2, "WaterTemperature": 28.1, "Conductivity": 301, "Turbidity": 3.3, "Ecoli": 29.1, "Enterococci": null, "name": "J22", "SiteConditions": "Dry, recent heat wave, clear morning", "date_Time": null, "creator": "deviceid not found", "creationdate": 1779374640000, "EcoliAverage": null, "EnterococciAverage": null, "Salinity": null}},
{"type": "Feature", "geometry": {"type": "Point", "coordinates": [-77.520421, 37.551591]}, "properties": {"OBJECTID": 3213, "GlobalID": "95db47ca-4a2a-4370-8cd9-90afa4c1ea0c", "StationNumber": null, "StationName": null, "Locality": null, "Latitude": 37.551591, "Longitude": -77.520421, "Organization": null, "BacteriaType": null, "Partner": null, "CollectionDate": null, "CollectionTime": null, "AirTemperature": 29.3, "WaterTemperature": 28.5, "Conductivity": 264, "Turbidity": 1.61, "Ecoli": 13.1, "Enterococci": null, "name": "J23", "SiteConditions": "Windy, overcast. Water moving fast. People recreating and geese observed.", "date_Time": null, "creator": "deviceid not found", "creationdate": 1779382740000, "EcoliAverage": null, "EnterococciAverage": null, "Salinity": null}},
{"type": "Feature", "geometry": {"type": "Point", "coordinates": [-77.545782, 37.56054]}, "properties": {"OBJECTID": 3214, "GlobalID": "ab571a85-2f8b-4149-873b-cc453a590185", "StationNumber": null, "StationName": null, "Locality": null, "Latitude": 37.56054, "Longitude": -77.545782, "Organization": null, "BacteriaType": null, "Partner": null, "CollectionDate": null, "CollectionTime": null, "AirTemperature": 23.4, "WaterTemperature": 25.9, "Conductivity": 267, "Turbidity": 2.58, "Ecoli": 11.6, "Enterococci": null, "name": "J24", "SiteConditions": "No recreational or wildlife activity seen. Windy and overcast after a clear morning.", "date_Time": null, "creator": "deviceid not found", "creationdate": 1779384060000, "EcoliAverage": null, "EnterococciAverage": null, "Salinity": null}},
{"type": "Feature", "geometry": {"type": "Point", "coordinates": [-77.421736, 37.5254183]}, "properties": {"OBJECTID": 3260, "GlobalID": "035bc3c5-5b21-4ef4-843b-2a8707d414d1", "StationNumber": null, "StationName": null, "Locality": null, "Latitude": 37.52541833, "Longitude": -77.42173598, "Organization": null, "BacteriaType": null, "Partner": null, "CollectionDate": null, "CollectionTime": null, "AirTemperature": 22.6, "WaterTemperature": 22.6, "Conductivity": 249, "Turbidity": 3.16, "Ecoli": 2419.6, "Enterococci": null, "name": "J41", "SiteConditions": "Heavy rain last night (Wednesday night). Osprey and cormorant seen.", "date_Time": null, "creator": "deviceid not found", "creationdate": 1779974100000, "EcoliAverage": null, "EnterococciAverage": null, "Salinity": null}},
{"type": "Feature", "geometry": {"type": "Point", "coordinates": [-77.445372, 37.534353]}, "properties": {"OBJECTID": 3261, "GlobalID": "955fea12-07be-4649-81aa-31697e1f4556", "StationNumber": null, "StationName": null, "Locality": null, "Latitude": 37.534353, "Longitude": -77.445372, "Organization": null, "BacteriaType": null, "Partner": null, "CollectionDate": null, "CollectionTime": null, "AirTemperature": 27.8, "WaterTemperature": 23.8, "Conductivity": 242, "Turbidity": 5.5, "Ecoli": 161.6, "Enterococci": null, "name": "J20", "SiteConditions": "Sunny and breezy, rain past three days", "date_Time": null, "creator": "deviceid not found", "creationdate": 1779984300000, "EcoliAverage": null, "EnterococciAverage": null, "Salinity": null}},
{"type": "Feature", "geometry": {"type": "Point", "coordinates": [-77.431925, 37.530947]}, "properties": {"OBJECTID": 3262, "GlobalID": "7c89db06-2fa1-456a-8049-1176b974eb2b", "StationNumber": null, "StationName": null, "Locality": null, "Latitude": 37.530947, "Longitude": -77.431925, "Organization": null, "BacteriaType": null, "Partner": null, "CollectionDate": null, "CollectionTime": null, "AirTemperature": 24, "WaterTemperature": 26.5, "Conductivity": 240, "Turbidity": 6.56, "Ecoli": 866.4, "Enterococci": null, "name": "J10", "SiteConditions": "Sunny and breezy. Rain past few days. Water appears muddy with vegetation on top of water.", "date_Time": null, "creator": "deviceid not found", "creationdate": 1779985920000, "EcoliAverage": null, "EnterococciAverage": null, "Salinity": null}},
{"type": "Feature", "geometry": {"type": "Point", "coordinates": [-77.416635, 37.518597]}, "properties": {"OBJECTID": 3263, "GlobalID": "fe0db89d-e1c8-4289-82a9-ee79c6568c6a", "StationNumber": null, "StationName": null, "Locality": null, "Latitude": 37.518597, "Longitude": -77.416635, "Organization": null, "BacteriaType": null, "Partner": null, "CollectionDate": null, "CollectionTime": null, "AirTemperature": 27.2, "WaterTemperature": 24, "Conductivity": null, "Turbidity": 5.98, "Ecoli": 328.2, "Enterococci": null, "name": "J08", "SiteConditions": "Very windy, sunny. A good amount of vegetation on top of the water.", "date_Time": null, "creator": "deviceid not found", "creationdate": 1779987660000, "EcoliAverage": null, "EnterococciAverage": null, "Salinity": null}},
{"type": "Feature", "geometry": {"type": "Point", "coordinates": [-77.520421, 37.551591]}, "properties": {"OBJECTID": 3266, "GlobalID": "958ceea9-2eec-45d1-8b0a-83f95789b235", "StationNumber": null, "StationName": null, "Locality": null, "Latitude": 37.551591, "Longitude": -77.520421, "Organization": null, "BacteriaType": null, "Partner": null, "CollectionDate": null, "CollectionTime": null, "AirTemperature": 26.1, "WaterTemperature": 24.1, "Conductivity": 266, "Turbidity": 2.61, "Ecoli": 22.3, "Enterococci": null, "name": "J23", "SiteConditions": "Lots or rain overnight and past 24 hours. Very windy. Paddle boarders and sunbathers seen.", "date_Time": null, "creator": "deviceid not found", "creationdate": 1779945840000, "EcoliAverage": null, "EnterococciAverage": null, "Salinity": null}},
{"type": "Feature", "geometry": {"type": "Point", "coordinates": [-77.545782, 37.56054]}, "properties": {"OBJECTID": 3267, "GlobalID": "a1e9fdf9-918b-466f-8028-1c7a45231234", "StationNumber": null, "StationName": null, "Locality": null, "Latitude": 37.56054, "Longitude": -77.545782, "Organization": null, "BacteriaType": null, "Partner": null, "CollectionDate": null, "CollectionTime": null, "AirTemperature": 26.2, "WaterTemperature": 23.7, "Conductivity": 242, "Turbidity": 2.67, "Ecoli": 48.2, "Enterococci": null, "name": "J24", "SiteConditions": "Muddy from rain previous night. Dog swimming in water. Sidewalk ramp partially submerged. Sunny.", "date_Time": null, "creator": "deviceid not found", "creationdate": 1779990660000, "EcoliAverage": null, "EnterococciAverage": null, "Salinity": null}},
{"type": "Feature", "geometry": {"type": "Point", "coordinates": [-77.475694, 37.52677]}, "properties": {"OBJECTID": 3268, "GlobalID": "b480da0c-25d9-4af3-8519-935831a93455", "StationNumber": null, "StationName": null, "Locality": null, "Latitude": 37.52677, "Longitude": -77.475694, "Organization": null, "BacteriaType": null, "Partner": null, "CollectionDate": null, "CollectionTime": null, "AirTemperature": 24.5, "WaterTemperature": 23.2, "Conductivity": 256, "Turbidity": 5.2, "Ecoli": 62.9, "Enterococci": null, "name": "J22", "SiteConditions": "Sunny, clear morning, light breeze. Water moving faster than last week. Rained heavily overnight.", "date_Time": null, "creator": "deviceid not found", "creationdate": 1779978120000, "EcoliAverage": null, "EnterococciAverage": null, "Salinity": null}},
{"type": "Feature", "geometry": {"type": "Point", "coordinates": [-77.469575, 37.524391]}, "properties": {"OBJECTID": 3269, "GlobalID": "9e4351e9-4895-4f6b-8109-d6d6a6c56ac7", "StationNumber": null, "StationName": null, "Locality": null, "Latitude": 37.524391, "Longitude": -77.469575, "Organization": null, "BacteriaType": null, "Partner": null, "CollectionDate": null, "CollectionTime": null, "AirTemperature": 24.8, "WaterTemperature": 22.8, "Conductivity": 232, "Turbidity": 5.06, "Ecoli": 352.1, "Enterococci": null, "name": "J21", "SiteConditions": "Sunny, clear morning, light breeze. Water moving faster than last week. Rained heavily overnight.", "date_Time": null, "creator": "deviceid not found", "creationdate": 1779979800000, "EcoliAverage": null, "EnterococciAverage": null, "Salinity": null}},
{"type": "Feature", "geometry": {"type": "Point", "coordinates": [-77.445372, 37.534353]}, "properties": {"OBJECTID": 3320, "GlobalID": "64a3af27-7ef5-47b2-8200-86f055d317ea", "StationNumber": null, "StationName": null, "Locality": null, "Latitude": 37.534353, "Longitude": -77.445372, "Organization": null, "BacteriaType": null, "Partner": null, "CollectionDate": null, "CollectionTime": null, "AirTemperature": 27.3, "WaterTemperature": 22.7, "Conductivity": 202, "Turbidity": 2.87, "Ecoli": 29.6, "Enterococci": null, "name": "J20", "SiteConditions": "Sunny and calm, rafters on the river", "date_Time": null, "creator": "deviceid not found", "creationdate": 1780583520000, "EcoliAverage": null, "EnterococciAverage": null, "Salinity": null}},
{"type": "Feature", "geometry": {"type": "Point", "coordinates": [-77.431925, 37.530947]}, "properties": {"OBJECTID": 3321, "GlobalID": "b11a9bdb-e3f9-481c-89a3-e791ab1d6d84", "StationNumber": null, "StationName": null, "Locality": null, "Latitude": 37.530947, "Longitude": -77.431925, "Organization": null, "BacteriaType": null, "Partner": null, "CollectionDate": null, "CollectionTime": null, "AirTemperature": 26.2, "WaterTemperature": 22.9, "Conductivity": 200, "Turbidity": 3.22, "Ecoli": 26.2, "Enterococci": null, "name": "J10", "SiteConditions": "Sunny, geese on river", "date_Time": null, "creator": "deviceid not found", "creationdate": 1780585020000, "EcoliAverage": null, "EnterococciAverage": null, "Salinity": null}},
{"type": "Feature", "geometry": {"type": "Point", "coordinates": [-77.416635, 37.518597]}, "properties": {"OBJECTID": 3322, "GlobalID": "2071882f-ec31-4853-87df-f4b7dba6c940", "StationNumber": null, "StationName": null, "Locality": null, "Latitude": 37.518597, "Longitude": -77.416635, "Organization": null, "BacteriaType": null, "Partner": null, "CollectionDate": null, "CollectionTime": null, "AirTemperature": 21.6, "WaterTemperature": 22.8, "Conductivity": 220, "Turbidity": 2.69, "Ecoli": 9.43, "Enterococci": null, "name": "J08", "SiteConditions": "Sunny and calm, leaves and sticks in river", "date_Time": null, "creator": "deviceid not found", "creationdate": 1780586520000, "EcoliAverage": null, "EnterococciAverage": null, "Salinity": null}},
{"type": "Feature", "geometry": {"type": "Point", "coordinates": [-77.545782, 37.56054]}, "properties": {"OBJECTID": 3324, "GlobalID": "83873458-70c9-47c4-89da-80282fbbc0b4", "StationNumber": null, "StationName": null, "Locality": null, "Latitude": 37.56054, "Longitude": -77.545782, "Organization": null, "BacteriaType": null, "Partner": null, "CollectionDate": null, "CollectionTime": null, "AirTemperature": 26.4, "WaterTemperature": 23.9, "Conductivity": 236, "Turbidity": 2.02, "Ecoli": 27.8, "Enterococci": null, "name": "J24", "SiteConditions": "Sunny, clear, no recent rain", "date_Time": null, "creator": "deviceid not found", "creationdate": 1780585560000, "EcoliAverage": null, "EnterococciAverage": null, "Salinity": null}},
{"type": "Feature", "geometry": {"type": "Point", "coordinates": [-77.520421, 37.551591]}, "properties": {"OBJECTID": 3325, "GlobalID": "1e4a0ee0-600f-425d-8a9d-5bee67fcccfa", "StationNumber": null, "StationName": null, "Locality": null, "Latitude": 37.551591, "Longitude": -77.520421, "Organization": null, "BacteriaType": null, "Partner": null, "CollectionDate": null, "CollectionTime": null, "AirTemperature": 27.1, "WaterTemperature": 24.5, "Conductivity": 246, "Turbidity": 1.72, "Ecoli": 7.4, "Enterococci": null, "name": "J23", "SiteConditions": "Sunny, clear, no recent rain", "date_Time": null, "creator": "deviceid not found", "creationdate": 1780587840000, "EcoliAverage": null, "EnterococciAverage": null, "Salinity": null}},
{"type": "Feature", "geometry": {"type": "Point", "coordinates": [-77.421736, 37.5254183]}, "properties": {"OBJECTID": 3327, "GlobalID": "94125adb-e86d-481f-81ad-c4c5ecd892d6", "StationNumber": null, "StationName": null, "Locality": null, "Latitude": 37.52541833, "Longitude": -77.42173598, "Organization": null, "BacteriaType": null, "Partner": null, "CollectionDate": null, "CollectionTime": null, "AirTemperature": 27.5, "WaterTemperature": 25.8, "Conductivity": 242, "Turbidity": 3.68, "Ecoli": 133.4, "Enterococci": null, "name": "J41", "SiteConditions": "No rain for about 8 days. Sunny, dry, clear conditions. Lots of Osprey activity. Numerous minnows seen near shore.", "date_Time": null, "creator": "deviceid not found", "creationdate": 1780594380000, "EcoliAverage": null, "EnterococciAverage": null, "Salinity": null}},
{"type": "Feature", "geometry": {"type": "Point", "coordinates": [-77.475694, 37.52677]}, "properties": {"OBJECTID": 3335, "GlobalID": "b4e80493-aad1-40c1-804f-c3b477880afc", "StationNumber": null, "StationName": null, "Locality": null, "Latitude": 37.52677, "Longitude": -77.475694, "Organization": null, "BacteriaType": null, "Partner": null, "CollectionDate": null, "CollectionTime": null, "AirTemperature": 28.4, "WaterTemperature": 25, "Conductivity": 200, "Turbidity": 1.36, "Ecoli": 13.5, "Enterococci": null, "name": "J22", "SiteConditions": "Clear, no rain recently. Handful of paddlers.", "date_Time": null, "creator": "deviceid not found", "creationdate": 1780590000000, "EcoliAverage": null, "EnterococciAverage": null, "Salinity": null}},
{"type": "Feature", "geometry": {"type": "Point", "coordinates": [-77.469575, 37.524391]}, "properties": {"OBJECTID": 3339, "GlobalID": "e260b27d-a67a-48cc-8a25-e18b6371b4ff", "StationNumber": null, "StationName": null, "Locality": null, "Latitude": 37.524391, "Longitude": -77.469575, "Organization": null, "BacteriaType": null, "Partner": null, "CollectionDate": null, "CollectionTime": null, "AirTemperature": 28.9, "WaterTemperature": 24.6, "Conductivity": 205, "Turbidity": 1.88, "Ecoli": 4.1, "Enterococci": null, "name": "J21", "SiteConditions": "No recent rain. Full parking lot. Water low and slow moving. No activity at kayak put in/", "date_Time": null, "creator": "deviceid not found", "creationdate": 1780591860000, "EcoliAverage": null, "EnterococciAverage": null, "Salinity": null}}
]}